sat12657
1 12657U 81053M   20046.65689351  .00064628  00000-0  90787-3 0  9993
2 12657  82.7124  17.1735 0009928  70.6698 289.5630 15.56402988 28679
